GALAXY 25 (G-25)        
1 24812U 97026A   22323.39980181  .00000017  00000+0  00000+0 0  9998
2 24812   4.0750  82.0675 0006022 188.8282 357.5558  1.00271698 93284
INTELSAT 5 (IS-5)       
1 24916U 97046A   22323.58746924 -.00000042  00000+0  00000+0 0  9990
2 24916   7.5584  59.9569 0005998 179.9269 196.3306  1.00270915 92521
GALAXY 11 (G-11)        
1 26038U 99071A   22323.38414200 -.00000141  00000+0  00000+0 0  9994
2 26038   3.4080  85.6284 0002150 214.7813 163.2038  1.00271146 83997
INTELSAT 9 (IS-9)       
1 26451U 00043A   22323.17756108 -.00000268  00000+0  00000+0 0  9997
2 26451   7.5418  60.1362 0003844 182.9904 189.0172  1.00271539 31050
INTELSAT 1R (IS-1R)     
1 26608U 00072A   22323.31138363 -.00000117  00000+0  00000+0 0  9999
2 26608   4.7944  79.2851 0000739 250.0658 358.1774  1.00271600 28225
INTELSAT 10 (IS-10)     
1 26766U 01019A   22323.53600429  .00000055  00000+0  00000+0 0  9997
2 26766   5.9437  72.0119 0003924 173.3508 183.9552  1.00272499 32521
INTELSAT 901 (IS-901)   
1 26824U 01024A   22323.32475519 -.00000182  00000+0  00000+0 0  9997
2 26824   0.0513  91.5890 0000400 135.5849 280.6431  1.00271028  9895
INTELSAT 902 (IS-902)   
1 26900U 01039A   22323.39277133 -.00000261  00000+0  00000+0 0  9995
2 26900   2.7938  87.2534 0003347 166.1238 256.3477  1.00271373 77609
INTELSAT 904 (IS-904)   
1 27380U 02007A   22323.25339458 -.00000193  00000+0  00000+0 0  9992
2 27380   3.6218  84.2551 0002830 156.3471 239.4051  1.00270282 38677
DIRECTV 5 (TEMPO 1)     
1 27426U 02023A   22323.54870448 -.00000035  00000+0  00000+0 0  9997
2 27426   1.5183  91.2856 0003172 142.7868 271.9308  1.00273058 75032
INTELSAT 905 (IS-905)   
1 27438U 02027A   22323.25435338 -.00000163  00000+0  00000+0 0  9999
2 27438   3.4440  84.9746 0002609 151.8510 248.5464  1.00272004 38276
GALAXY 3C (G-3C)        
1 27445U 02030A   22322.45732398 -.00000134  00000+0  00000+0 0  9996
2 27445   0.3682  91.0258 0001259 217.5874 178.6903  1.00271257 33396
INTELSAT 906 (IS-906)   
1 27513U 02041A   22323.39980181  .00000035  00000+0  00000+0 0  9992
2 27513   2.4632  88.6693 0003920 161.5552  16.2596  1.00271558 73936
GALAXY 12 (G-12)        
1 27715U 03013B   22323.48656655  .00000079  00000+0  00000+0 0  9990
2 27715   3.6552  83.9070 0001643 155.8207 224.9409  1.00270863 71919
GALAXY 23 (G-23)        
1 27854U 03034A   22323.16344035  .00000032  00000+0  00000+0 0  9997
2 27854   0.0136 284.5930 0003204 316.7556 114.6954  1.00272261 70649
GALAXY 13 (HORIZONS-1)  
1 27954U 03044A   22323.23551812  .00000067  00000+0  00000+0 0  9998
2 27954   0.0490 102.0812 0000443  35.5705 238.3863  1.00276178 33474
INTELSAT 10-02          
1 28358U 04022A   22320.74873181  .00000003  00000+0  00000+0 0  9993
2 28358   0.0348  95.8226 0001170 173.4038  55.1443  1.00271207 67421
XM-3 (RHYTHM)           
1 28626U 05008A   22323.45753490 -.00000186  00000+0  00000+0 0  9990
2 28626   0.0207 136.3951 0001700  56.5640 305.1288  1.00270107 64978
DIRECTV 8               
1 28659U 05019A   22323.44569411  .00000021  00000+0  00000+0 0  9992
2 28659   0.0066 332.8891 0002733 270.9987 215.9898  1.00272383 63989
GALAXY 28 (G-28)        
1 28702U 05022A   22323.45675042 -.00000165  00000+0  00000+0 0  9994
2 28702   0.0391  82.7508 0002289 178.9185 232.2515  1.00272124 38891
GALAXY 14 (G-14)        
1 28790U 05030A   22323.19412243  .00000176  00000+0  00000+0 0  9994
2 28790   1.6502  90.4770 0001892 146.6664 283.8728  1.00273256 63218
GALAXY 15 (G-15)        
1 28884U 05041A   22323.52165334  .00000064  00000+0  00000+0 0  9999
2 28884   0.2060  91.8969 0003982 166.8797 220.5979  1.00304015 62521
SPACEWAY 2              
1 28903U 05046B   22323.59147765  .00000124  00000+0  00000+0 0  9998
2 28903   2.2574  86.3810 0000771 248.1394 158.1527  1.00272331 38252
GALAXY 16 (G-16)        
1 29236U 06023A   22323.46922727 -.00000107  00000+0  00000+0 0  9991
2 29236   0.0018 329.8196 0002628 260.2004 258.4048  1.00271878 59888
DIRECTV 9S              
1 29494U 06043A   22323.46765587 -.00000093  00000+0  00000+0 0  9992
2 29494   0.0069 321.3822 0002838 275.8395 248.4380  1.00271333 38297
XM-4 (BLUES)            
1 29520U 06049A   22323.45753490 -.00000186  00000+0  00000+0 0  9990
2 29520   0.0234 300.3642 0001740  19.6971 178.0195  1.00272015 38383
GALAXY 17 (G-17)        
1 31307U 07016B   22323.45631458 -.00000155  00000+0  00000+0 0  9996
2 31307   0.0350  66.3427 0002720 180.1163 245.3198  1.00272789 56710
DIRECTV 10              
1 31862U 07032A   22323.46586840 -.00000083  00000+0  00000+0 0  9995
2 31862   0.0264 140.6307 0000196  51.2267 291.5649  1.00270488 32500
SPACEWAY 3              
1 32018U 07036A   22323.52726687 -.00000131  00000+0  00000+0 0  9999
2 32018   0.6223  90.9008 0000313 339.2490  83.2778  1.00271719 56039
INTELSAT 11 (IS-11)     
1 32253U 07044B   22323.39416597 -.00000248  00000+0  00000+0 0  9999
2 32253   0.1780  93.5714 0002703 169.1811 254.5747  1.00271988 55405
HORIZONS-2              
1 32388U 07063B   22323.45971402 -.00000233  00000+0  00000+0 0  9991
2 32388   0.0325  79.1037 0002114 159.2894 271.8018  1.00272079 54722
DIRECTV 11              
1 32729U 08013A   22323.46922788 -.00000106  00000+0  00000+0 0  9999
2 32729   0.0027 109.3236 0000284  26.8243 352.1087  1.00271772 32500
GALAXY 18 (G-18)        
1 32951U 08024A   22323.49485705  .00000045  00000+0  00000+0 0  9995
2 32951   0.0086 328.4733 0002999 273.0844 232.1276  1.00272686 52993
INTELSAT 25 (IS-25)     
1 33153U 08034A   22323.39634510 -.00000204  00000+0  00000+0 0  9998
2 33153   0.0147 290.0980 0002963 310.1232 289.3870  1.00270669 52600
GALAXY 19 (G-19)        
1 33376U 08045A   22323.52683104 -.00000119  00000+0  00000+0 0  9990
2 33376   0.0187  71.9636 0002846 166.4397 272.7776  1.00268878 51743
FM-5                    
1 35493U 09034A   22323.45727340 -.00000181  00000+0  00000+0 0  9993
2 35493   0.0135 296.2289 0000224 212.8983 347.8497  1.00272648 48884
INTELSAT 14 (IS-14)     
1 36097U 09064A   22323.46546691 -.00000254  00000+0  00000+0 0  9997
2 36097   0.0136 319.2422 0002605 288.5977 293.2380  1.00271703 47604
INTELSAT 15 (IS-15)     
1 36106U 09067A   22323.42827175 -.00000166  00000+0  00000+0 0  9998
2 36106   0.0167 316.3663 0002316 289.1055  52.3215  1.00272043 28133
DIRECTV 12              
1 36131U 09075A   22323.46586801 -.00000083  00000+0  00000+0 0  9995
2 36131   0.0352 144.5751 0000156 117.6879 221.2426  1.00270774 33478
INTELSAT 16 (IS-16)     
1 36397U 10006A   22323.45927819 -.00000225  00000+0  00000+0 0  9990
2 36397   0.0153 309.2482 0002109 287.6754 270.7158  1.00271968 46620
XM-5                    
1 37185U 10053A   22323.45083598 -.00000003  00000+0  00000+0 0  9999
2 37185   0.0149 305.3858 0000299 134.6540  25.5272  1.00267900 44393
INTELSAT 17 (IS-17)     
1 37238U 10065B   22323.39980181  .00000018  00000+0  00000+0 0  9993
2 37238   0.0155 266.1110 0002421 331.4904  30.7485  1.00271588 40144
INTELSAT NEW DAWN       
1 37392U 11016A   22323.13313515  .00000175  00000+0  00000+0 0  9998
2 37392   0.0284 144.9325 0001366 101.1174 252.8688  1.00273067 40198
INTELSAT 18 (IS-18)     
1 37834U 11056A   22323.60621372  .00000073  00000+0  00000+0 0  9995
2 37834   0.0281   3.1038 0002038 225.7997 227.9798  1.00270167 40751
INTELSAT 22 (IS-22)     
1 38098U 12011A   22323.13014337 -.00000040  00000+0  00000+0 0  9990
2 38098   0.0140 314.9764 0002782 278.3749 303.7577  1.00272431 38720
INTELSAT 19 (IS-19)     
1 38356U 12030A   22323.58767944 -.00000036  00000+0  00000+0 0  9991
2 38356   0.0183 312.1987 0003036 291.8048 192.1825  1.00271517 37343
INTELSAT 20 (IS-20)     
1 38740U 12043A   22323.12918455 -.00000006  00000+0  00000+0 0  9994
2 38740   0.0238 140.3163 0003430  55.1430 337.7002  1.00273197 37656
INTELSAT 21 (IS-21)     
1 38749U 12045A   22323.39120236 -.00000265  00000+0  00000+0 0  9993
2 38749   0.0160 342.5597 0002307 255.4904 263.2199  1.00272740 37449
INTELSAT 23 (IS-23)     
1 38867U 12057A   22323.39216118 -.00000265  00000+0  00000+0 0  9992
2 38867   0.0135 288.6846 0001131  77.6139 140.3317  1.00274197 36856
FM-6                    
1 39360U 13058A   22323.44904669  .00000003  00000+0  00000+0 0  9993
2 39360   0.0250 292.3849 0000485 232.2209 299.3704  1.00274032 32978
INTELSAT 30 (IS-30)     
1 40271U 14062A   22321.11021663 -.00000136  00000+0  00000+0 0  9996
2 40271   0.0173 287.7297 0002047 174.3332 258.7312  1.00270288 29462
DIRECTV 14              
1 40333U 14078B   22323.39725491 -.00000106  00000+0  00000+0 0  9991
2 40333   0.0279  94.2363 0000078 169.9379 198.0339  1.00272831 28972
DIRECTV 15              
1 40663U 15026A   22323.46586866 -.00000083  00000+0  00000+0 0  9994
2 40663   0.0094 327.4571 0000099  40.0368 115.8596  1.00274062 27378
SKY MEXICO-1            
1 40664U 15026B   22323.38701845 -.00000215  00000+0  00000+0 0  9999
2 40664   0.0148   3.9190 0002058 235.6094 239.4541  1.00272461 27360
INTELSAT 34 (IS-34)     
1 40874U 15039A   22323.24816466 -.00000266  00000+0  00000+0 0  9993
2 40874   0.0208 294.1873 0000295 209.0323 308.9085  1.00270333 26532
INTELSAT 31 (IS-31)     
1 41581U 16035A   22322.03432245 -.00000134  00000+0  00000+0 0  9995
2 41581   0.0161 258.1668 0001881 310.9589 125.2553  1.00270512 23587
INTELSAT 36 (IS-36)     
1 41747U 16053A   22321.80743855 -.00000009  00000+0  00000+0 0  9996
2 41747   0.0121 334.9377 0001608  28.7189  52.3760  1.00271114 22830
INTELSAT 33E (IS-33E)   
1 41748U 16053B   22323.41464976  .00000068  00000+0  00000+0 0  9994
2 41748   0.0400  99.2249 0001547 140.5911  27.8970  1.00271514 23158
INTELSAT 32E (IS-32E)   
1 41945U 17007B   22323.27063128 -.00000249  00000+0  00000+0 0  9993
2 41945   0.0116 312.2464 0000198 193.2375 327.0346  1.00271255 21149
INTELSAT 35E (IS-35E)   
1 42818U 17041A   22323.46755888 -.00000218  00000+0  00000+0 0  9999
2 42818   0.0165 290.9003 0001631 306.6367 314.8115  1.00272368 19712
INTELSAT 37E (IS-37E)   
1 42950U 17059A   22323.44362538 -.00000121  00000+0  00000+0 0  9992
2 42950   0.0124 311.8224 0002504 283.6067 324.7262  1.00270648 18972
AZERSPACE 2 (IS-38)     
1 43632U 18074A   22321.89795972  .00000152  00000+0  00000+0 0  9990
2 43632   0.0064  97.1366 0001491 153.2074 174.9929  1.00272210 15337
HORIZONS-3E             
1 43633U 18074B   22321.59113178 -.00000013  00000+0  00000+0 0  9997
2 43633   0.0391  97.4420 0001391 177.7913 163.2366  1.00278605 15225
AT&T T-16               
1 44333U 19034A   22321.53434226 -.00000099  00000+0  00000+0 0  9990
2 44333   0.0493  99.4542 0000235 129.0930 279.5386  1.00269550 12520
INTELSAT 39 (IS-39)     
1 44476U 19049B   22323.41491125  .00000053  00000+0  00000+0 0  9993
2 44476   0.0160 293.8167 0000485 193.5239 142.4200  1.00271292 12043
GALAXY 30 (G-30)        
1 46114U 20056C   22323.43908976  .00000057  00000+0  00000+0 0  9997
2 46114   0.0183 296.3470 0002066 290.9102 224.2859  1.00271015  8207
GALAXY 33               
1 54026U 22128A   22323.42903681  .00000098  00000+0  00000+0 0  9992
2 54026   0.0414 103.5859 0002412 141.4861 194.8588  1.00273753   655
GALAXY 34               
1 54027U 22128B   22323.24925285  .00000149  00000+0  00000+0 0  9994
2 54027   0.0121 327.7612 0000869 323.8159  68.4487  1.00272413   812
2022-153A               
1 54243U 22153A   22321.75666288 -.00000131  00000+0  00000+0 0  9993
2 54243   1.3310 126.4407 2070818 181.2691  25.4972  0.71236792    57
2022-153B               
1 54244U 22153B   22323.54767939 -.00000117  00000+0  00000+0 0  9992
2 54244   1.2332 126.3182 2126087 181.8177 115.4176  0.70417329    79
